[{"OBJECT_NAME":"JILIN-1 GAOFEN 03D47","OBJECT_ID":"2022-167L","EPOCH":"2026-03-09T22:56:46.924224","MEAN_MOTION":15.31686941,"ECCENTRICITY":0.00089304,"INCLINATION":97.6835,"RA_OF_ASC_NODE":234.6581,"ARG_OF_PERICENTER":110.4031,"MEAN_ANOMALY":249.8169,"EPHEMERIS_TYPE":0,"CLASSIFICATION_TYPE":"U","NORAD_CAT_ID":54692,"ELEMENT_SET_NO":999,"REV_AT_EPOCH":18014,"BSTAR":0.00047294748,"MEAN_MOTION_DOT":0.00014417,"MEAN_MOTION_DDOT":0},{"OBJECT_NAME":"STARLINK-35531","OBJECT_ID":"2025-236AC","EPOCH":"2026-03-09T11:30:39.663936","MEAN_MOTION":15.30192173,"ECCENTRICITY":0.00014919,"INCLINATION":53.1595,"RA_OF_ASC_NODE":104.76,"ARG_OF_PERICENTER":76.8145,"MEAN_ANOMALY":283.3022,"EPHEMERIS_TYPE":0,"CLASSIFICATION_TYPE":"U","NORAD_CAT_ID":66112,"ELEMENT_SET_NO":999,"REV_AT_EPOCH":2291,"BSTAR":0.00093900161,"MEAN_MOTION_DOT":0.00027548,"MEAN_MOTION_DDOT":0}]
